<?xml version="1.0" encoding="UTF-8" standalone="no"?><gpx xmlns="http://www.topografix.com/GPX/1/1" xmlns:xsi="http://www.w3.org/2001/XMLSchema-instance" creator="Sports Tracker" version="1.1" xsi:schemaLocation="http://www.topografix.com/GPX/1/1 http://www.topografix.com/GPX/1/1/gpx.xsd"><metadata><name>Mont Chouffe</name><author><name>bart730301</name></author></metadata><wpt lat="46.298313" lon="6.749684"><name>Begin</name><desc>Auto-generated</desc><type>Begin</type></wpt><wpt lat="46.298325" lon="6.74974"><name>Houd links aan naar Chemin des</name><type>Slight_left_turn</type></wpt><wpt lat="46.298363" lon="6.749807"><name>Ga linksaf naar Chemin d'Autig</name><type>Sharp_left_turn</type></wpt><wpt lat="46.298153" lon="6.747393"><name>Houd rechts aan naar Chemin d'</name><type>Right_at_fork_turn</type></wpt><wpt lat="46.298695" lon="6.745357"><name>Houd links aan naar Chemin d'A</name><type>Left_at_fork_turn</type></wpt><wpt lat="46.297962" lon="6.739889"><name>Houd links aan naar Chemin d'A</name><type>Left_at_fork_turn</type></wpt><wpt lat="46.29925" lon="6.727863"><type>Right_turn</type></wpt><wpt lat="46.301743" lon="6.732843"><name>Houd rechts aan</name><type>Right_at_fork_turn</type></wpt><wpt lat="46.30169" lon="6.738346"><name>Waypoint 1</name><desc>Auto-generated</desc><type>Waypoint</type></wpt><wpt lat="46.3093" lon="6.760034"><name>Waypoint 2</name><desc>Auto-generated</desc><type>Waypoint</type></wpt><wpt lat="46.306652" lon="6.770555"><name>Waypoint 3</name><desc>Auto-generated</desc><type>Waypoint</type></wpt><wpt lat="46.30052" lon="6.764835"><name>Waypoint 4</name><desc>Auto-generated</desc><type>Waypoint</type></wpt><wpt lat="46.300503" lon="6.764505"><name>Rechtsaf naar Chemin de La Rai</name><type>Right_turn</type></wpt><wpt lat="46.304066" lon="6.764597"><type>Left_turn</type></wpt><wpt lat="46.30253" lon="6.76123"><name>Linksaf naar Chemin de La Rail</name><type>Left_turn</type></wpt><wpt lat="46.301598" lon="6.758344"><type>Left_turn</type></wpt><wpt lat="46.301163" lon="6.75773"><name>Linksaf naar Chemin de La Rail</name><type>Left_turn</type></wpt><wpt lat="46.298496" lon="6.750014"><name>End</name><desc>Auto-generated</desc><type>End</type></wpt><rte><rtept lat="46.298313" lon="6.749684"><ele>1230.49</ele></rtept><rtept lat="46.298325" lon="6.74974"><ele>1229.79</ele></rtept><rtept lat="46.298363" lon="6.749807"><ele>1230.3</ele></rtept><rtept lat="46.298412" lon="6.749641"><ele>1232.11</ele></rtept><rtept lat="46.29842" lon="6.74959"><ele>1232.69</ele></rtept><rtept lat="46.298416" lon="6.749472"><ele>1234.22</ele></rtept><rtept lat="46.298397" lon="6.749352"><ele>1235.68</ele></rtept><rtept lat="46.29836" lon="6.749233"><ele>1237.23</ele></rtept><rtept lat="46.29824" lon="6.749031"><ele>1240.22</ele></rtept><rtept lat="46.298218" lon="6.748979"><ele>1240.69</ele></rtept><rtept lat="46.29817" lon="6.748811"><ele>1242.39</ele></rtept><rtept lat="46.29814" lon="6.748703"><ele>1243.15</ele></rtept><rtept lat="46.29812" lon="6.748556"><ele>1243.79</ele></rtept><rtept lat="46.298065" lon="6.748044"><ele>1245.54</ele></rtept><rtept lat="46.298077" lon="6.747974"><ele>1245.79</ele></rtept><rtept lat="46.298134" lon="6.747798"><ele>1246.34</ele></rtept><rtept lat="46.298153" lon="6.747588"><ele>1247.75</ele></rtept><rtept lat="46.298145" lon="6.747471"><ele>1248.77</ele></rtept><rtept lat="46.298153" lon="6.747393"><ele>1249.04</ele></rtept><rtept lat="46.298225" lon="6.747231"><ele>1250.39</ele></rtept><rtept lat="46.2984" lon="6.746905"><ele>1255.52</ele></rtept><rtept lat="46.298485" lon="6.746656"><ele>1259.57</ele></rtept><rtept lat="46.298515" lon="6.746516"><ele>1261.74</ele></rtept><rtept lat="46.2987" lon="6.745489"><ele>1278.29</ele></rtept><rtept lat="46.298706" lon="6.745399"><ele>1279.95</ele></rtept><rtept lat="46.298695" lon="6.745357"><ele>1280.78</ele></rtept><rtept lat="46.298683" lon="6.745315"><ele>1281.64</ele></rtept><rtept lat="46.29861" lon="6.74517"><ele>1284.27</ele></rtept><rtept lat="46.298595" lon="6.745073"><ele>1285.72</ele></rtept><rtept lat="46.29858" lon="6.744901"><ele>1288.19</ele></rtept><rtept lat="46.298523" lon="6.744754"><ele>1289.74</ele></rtept><rtept lat="46.29852" lon="6.744665"><ele>1290.29</ele></rtept><rtept lat="46.298534" lon="6.744342"><ele>1293.2</ele></rtept><rtept lat="46.298634" lon="6.743711"><ele>1303.23</ele></rtept><rtept lat="46.29867" lon="6.743245"><ele>1309.8</ele></rtept><rtept lat="46.298664" lon="6.743125"><ele>1311.61</ele></rtept><rtept lat="46.29865" lon="6.743016"><ele>1313.38</ele></rtept><rtept lat="46.298557" lon="6.742684"><ele>1318.19</ele></rtept><rtept lat="46.298546" lon="6.742549"><ele>1319.14</ele></rtept><rtept lat="46.298523" lon="6.742045"><ele>1321.81</ele></rtept><rtept lat="46.29844" lon="6.741606"><ele>1325.82</ele></rtept><rtept lat="46.298405" lon="6.741452"><ele>1327.86</ele></rtept><rtept lat="46.29824" lon="6.74095"><ele>1334.4</ele></rtept><rtept lat="46.298214" lon="6.740894"><ele>1335.2</ele></rtept><rtept lat="46.298115" lon="6.740749"><ele>1337.66</ele></rtept><rtept lat="46.298054" lon="6.740687"><ele>1339.0</ele></rtept><rtept lat="46.297775" lon="6.740489"><ele>1344.66</ele></rtept><rtept lat="46.297745" lon="6.740453"><ele>1345.34</ele></rtept><rtept lat="46.29772" lon="6.740412"><ele>1345.92</ele></rtept><rtept lat="46.297703" lon="6.740314"><ele>1347.12</ele></rtept><rtept lat="46.297707" lon="6.739904"><ele>1351.7</ele></rtept><rtept lat="46.297714" lon="6.73986"><ele>1352.29</ele></rtept><rtept lat="46.29773" lon="6.739824"><ele>1352.85</ele></rtept><rtept lat="46.29777" lon="6.739784"><ele>1353.78</ele></rtept><rtept lat="46.297817" lon="6.739778"><ele>1354.61</ele></rtept><rtept lat="46.297844" lon="6.739788"><ele>1354.99</ele></rtept><rtept lat="46.297962" lon="6.739889"><ele>1355.51</ele></rtept><rtept lat="46.297997" lon="6.7399"><ele>1356.06</ele></rtept><rtept lat="46.298054" lon="6.739878"><ele>1357.33</ele></rtept><rtept lat="46.298077" lon="6.739856"><ele>1357.98</ele></rtept><rtept lat="46.298096" lon="6.739821"><ele>1358.63</ele></rtept><rtept lat="46.298103" lon="6.739781"><ele>1359.23</ele></rtept><rtept lat="46.298107" lon="6.739737"><ele>1359.85</ele></rtept><rtept lat="46.2981" lon="6.739691"><ele>1360.5</ele></rtept><rtept lat="46.29801" lon="6.739311"><ele>1365.7</ele></rtept><rtept lat="46.297832" lon="6.739119"><ele>1369.53</ele></rtept><rtept lat="46.29778" lon="6.739005"><ele>1371.18</ele></rtept><rtept lat="46.297756" lon="6.738982"><ele>1371.66</ele></rtept><rtept lat="46.297676" lon="6.738947"><ele>1373.1</ele></rtept><rtept lat="46.297565" lon="6.738939"><ele>1375.02</ele></rtept><rtept lat="46.29753" lon="6.738926"><ele>1375.67</ele></rtept><rtept lat="46.2975" lon="6.738904"><ele>1376.27</ele></rtept><rtept lat="46.297443" lon="6.738833"><ele>1377.57</ele></rtept><rtept lat="46.297436" lon="6.738732"><ele>1378.85</ele></rtept><rtept lat="46.29744" lon="6.738672"><ele>1379.62</ele></rtept><rtept lat="46.297485" lon="6.738484"><ele>1382.03</ele></rtept><rtept lat="46.297504" lon="6.738301"><ele>1384.18</ele></rtept><rtept lat="46.297497" lon="6.738192"><ele>1385.44</ele></rtept><rtept lat="46.297455" lon="6.737954"><ele>1388.19</ele></rtept><rtept lat="46.29746" lon="6.737912"><ele>1388.66</ele></rtept><rtept lat="46.29748" lon="6.737844"><ele>1389.54</ele></rtept><rtept lat="46.29752" lon="6.737787"><ele>1390.5</ele></rtept><rtept lat="46.297546" lon="6.737776"><ele>1390.95</ele></rtept><rtept lat="46.297882" lon="6.737813"><ele>1396.56</ele></rtept><rtept lat="46.29792" lon="6.737823"><ele>1397.25</ele></rtept><rtept lat="46.298073" lon="6.7379"><ele>1399.77</ele></rtept><rtept lat="46.2981" lon="6.737899"><ele>1400.15</ele></rtept><rtept lat="46.298115" lon="6.737884"><ele>1400.42</ele></rtept><rtept lat="46.29813" lon="6.737855"><ele>1400.75</ele></rtept><rtept lat="46.29813" lon="6.737777"><ele>1401.47</ele></rtept><rtept lat="46.29804" lon="6.737466"><ele>1404.79</ele></rtept><rtept lat="46.29799" lon="6.737339"><ele>1406.26</ele></rtept><rtept lat="46.29787" lon="6.737121"><ele>1409.18</ele></rtept><rtept lat="46.297867" lon="6.73703"><ele>1410.19</ele></rtept><rtept lat="46.29787" lon="6.736984"><ele>1410.71</ele></rtept><rtept lat="46.297985" lon="6.736683"><ele>1414.87</ele></rtept><rtept lat="46.29804" lon="6.7366"><ele>1416.36</ele></rtept><rtept lat="46.29814" lon="6.736486"><ele>1419.0</ele></rtept><rtept lat="46.2982" lon="6.736404"><ele>1420.7</ele></rtept><rtept lat="46.29823" lon="6.736314"><ele>1422.24</ele></rtept><rtept lat="46.298294" lon="6.736035"><ele>1427.19</ele></rtept><rtept lat="46.2983" lon="6.735941"><ele>1428.75</ele></rtept><rtept lat="46.298298" lon="6.735898"><ele>1429.45</ele></rtept><rtept lat="46.29822" lon="6.73537"><ele>1437.67</ele></rtept><rtept lat="46.298233" lon="6.73516"><ele>1440.63</ele></rtept><rtept lat="46.298206" lon="6.734964"><ele>1443.29</ele></rtept><rtept lat="46.29821" lon="6.734913"><ele>1443.94</ele></rtept><rtept lat="46.298267" lon="6.73457"><ele>1448.12</ele></rtept><rtept lat="46.298298" lon="6.734472"><ele>1449.26</ele></rtept><rtept lat="46.29842" lon="6.73421"><ele>1452.32</ele></rtept><rtept lat="46.29846" lon="6.734112"><ele>1453.39</ele></rtept><rtept lat="46.29856" lon="6.733743"><ele>1457.66</ele></rtept><rtept lat="46.298595" lon="6.733648"><ele>1458.86</ele></rtept><rtept lat="46.29874" lon="6.733404"><ele>1462.42</ele></rtept><rtept lat="46.29886" lon="6.733141"><ele>1465.91</ele></rtept><rtept lat="46.29897" lon="6.732938"><ele>1468.98</ele></rtept><rtept lat="46.299202" lon="6.732696"><ele>1473.73</ele></rtept><rtept lat="46.299282" lon="6.732579"><ele>1475.68</ele></rtept><rtept lat="46.299297" lon="6.73253"><ele>1476.4</ele></rtept><rtept lat="46.29931" lon="6.732416"><ele>1478.03</ele></rtept><rtept lat="46.29931" lon="6.732351"><ele>1479.0</ele></rtept><rtept lat="46.29928" lon="6.732167"><ele>1481.64</ele></rtept><rtept lat="46.29928" lon="6.73206"><ele>1482.54</ele></rtept><rtept lat="46.299286" lon="6.732011"><ele>1482.97</ele></rtept><rtept lat="46.299362" lon="6.731788"><ele>1486.65</ele></rtept><rtept lat="46.29944" lon="6.731697"><ele>1488.63</ele></rtept><rtept lat="46.29961" lon="6.731557"><ele>1492.91</ele></rtept><rtept lat="46.299686" lon="6.731429"><ele>1495.44</ele></rtept><rtept lat="46.299793" lon="6.731142"><ele>1499.94</ele></rtept><rtept lat="46.299885" lon="6.73093"><ele>1503.19</ele></rtept><rtept lat="46.299942" lon="6.730668"><ele>1506.66</ele></rtept><rtept lat="46.299946" lon="6.730578"><ele>1507.79</ele></rtept><rtept lat="46.299934" lon="6.730438"><ele>1509.52</ele></rtept><rtept lat="46.299904" lon="6.730294"><ele>1511.36</ele></rtept><rtept lat="46.29981" lon="6.73002"><ele>1514.97</ele></rtept><rtept lat="46.299786" lon="6.729904"><ele>1516.32</ele></rtept><rtept lat="46.29978" lon="6.729783"><ele>1517.67</ele></rtept><rtept lat="46.299805" lon="6.729505"><ele>1520.78</ele></rtept><rtept lat="46.299805" lon="6.72944"><ele>1521.52</ele></rtept><rtept lat="46.29973" lon="6.729101"><ele>1525.76</ele></rtept><rtept lat="46.29956" lon="6.728618"><ele>1532.54</ele></rtept><rtept lat="46.29952" lon="6.728538"><ele>1533.72</ele></rtept><rtept lat="46.299408" lon="6.728377"><ele>1536.54</ele></rtept><rtept lat="46.299362" lon="6.728287"><ele>1538.03</ele></rtept><rtept lat="46.29931" lon="6.72816"><ele>1539.98</ele></rtept><rtept lat="46.299286" lon="6.728094"><ele>1541.01</ele></rtept><rtept lat="46.29927" lon="6.727958"><ele>1542.99</ele></rtept><rtept lat="46.29925" lon="6.727863"><ele>1543.1</ele></rtept><rtept lat="46.29931" lon="6.727841"><ele>1543.59</ele></rtept><rtept lat="46.299343" lon="6.727845"><ele>1543.83</ele></rtept><rtept lat="46.299454" lon="6.7279"><ele>1544.72</ele></rtept><rtept lat="46.29962" lon="6.727959"><ele>1546.26</ele></rtept><rtept lat="46.299843" lon="6.728088"><ele>1549.59</ele></rtept><rtept lat="46.29999" lon="6.728211"><ele>1552.3</ele></rtept><rtept lat="46.3002" lon="6.728339"><ele>1555.25</ele></rtept><rtept lat="46.30039" lon="6.728437"><ele>1557.33</ele></rtept><rtept lat="46.300556" lon="6.728454"><ele>1558.62</ele></rtept><rtept lat="46.30061" lon="6.72847"><ele>1558.91</ele></rtept><rtept lat="46.300835" lon="6.728599"><ele>1559.48</ele></rtept><rtept lat="46.300865" lon="6.728641"><ele>1559.42</ele></rtept><rtept lat="46.30088" lon="6.728698"><ele>1559.31</ele></rtept><rtept lat="46.300926" lon="6.729196"><ele>1556.98</ele></rtept><rtept lat="46.300938" lon="6.729673"><ele>1554.35</ele></rtept><rtept lat="46.30092" lon="6.730047"><ele>1553.02</ele></rtept><rtept lat="46.30093" lon="6.730336"><ele>1552.57</ele></rtept><rtept lat="46.30094" lon="6.730482"><ele>1552.62</ele></rtept><rtept lat="46.301003" lon="6.730837"><ele>1553.43</ele></rtept><rtept lat="46.30102" lon="6.730916"><ele>1553.68</ele></rtept><rtept lat="46.30109" lon="6.731041"><ele>1554.21</ele></rtept><rtept lat="46.301113" lon="6.731104"><ele>1554.46</ele></rtept><rtept lat="46.301132" lon="6.731193"><ele>1554.78</ele></rtept><rtept lat="46.301174" lon="6.731497"><ele>1555.83</ele></rtept><rtept lat="46.301308" lon="6.731922"><ele>1557.29</ele></rtept><rtept lat="46.30139" lon="6.732341"><ele>1558.41</ele></rtept><rtept lat="46.301414" lon="6.732407"><ele>1558.5</ele></rtept><rtept lat="46.301537" lon="6.732635"><ele>1558.93</ele></rtept><rtept lat="46.30157" lon="6.732679"><ele>1559.09</ele></rtept><rtept lat="46.301743" lon="6.732843"><ele>1560.1</ele></rtept><rtept lat="46.301792" lon="6.733196"><ele>1563.87</ele></rtept><rtept lat="46.301876" lon="6.733444"><ele>1567.04</ele></rtept><rtept lat="46.301987" lon="6.733662"><ele>1570.39</ele></rtept><rtept lat="46.30204" lon="6.733932"><ele>1573.88</ele></rtept><rtept lat="46.302032" lon="6.73416"><ele>1576.81</ele></rtept><rtept lat="46.302017" lon="6.734416"><ele>1580.26</ele></rtept><rtept lat="46.302036" lon="6.734579"><ele>1582.66</ele></rtept><rtept lat="46.302044" lon="6.734831"><ele>1586.71</ele></rtept><rtept lat="46.30188" lon="6.735205"><ele>1594.61</ele></rtept><rtept lat="46.30179" lon="6.735481"><ele>1600.39</ele></rtept><rtept lat="46.301712" lon="6.735636"><ele>1605.0</ele></rtept><rtept lat="46.301727" lon="6.735737"><ele>1607.92</ele></rtept><rtept lat="46.301693" lon="6.735794"><ele>1610.1</ele></rtept><rtept lat="46.301735" lon="6.735908"><ele>1613.37</ele></rtept><rtept lat="46.301712" lon="6.735957"><ele>1614.93</ele></rtept><rtept lat="46.30148" lon="6.736251"><ele>1634.11</ele></rtept><rtept lat="46.30147" lon="6.737555"><ele>1689.79</ele></rtept><rtept lat="46.30169" lon="6.738346"><ele>1705.26</ele></rtept><rtept lat="46.30204" lon="6.739629"><ele>1709.76</ele></rtept><rtept lat="46.3028" lon="6.742394"><ele>1736.18</ele></rtept><rtept lat="46.303177" lon="6.743776"><ele>1729.96</ele></rtept><rtept lat="46.303368" lon="6.744467"><ele>1734.96</ele></rtept><rtept lat="46.303616" lon="6.744632"><ele>1742.59</ele></rtept><rtept lat="46.30376" lon="6.744954"><ele>1747.41</ele></rtept><rtept lat="46.303772" lon="6.745199"><ele>1748.64</ele></rtept><rtept lat="46.3041" lon="6.746477"><ele>1758.55</ele></rtept><rtept lat="46.30449" lon="6.746911"><ele>1774.97</ele></rtept><rtept lat="46.304604" lon="6.747164"><ele>1783.52</ele></rtept><rtept lat="46.304596" lon="6.747274"><ele>1786.84</ele></rtept><rtept lat="46.304943" lon="6.747956"><ele>1814.37</ele></rtept><rtept lat="46.3051" lon="6.747996"><ele>1822.23</ele></rtept><rtept lat="46.305256" lon="6.748183"><ele>1832.15</ele></rtept><rtept lat="46.30533" lon="6.748372"><ele>1839.22</ele></rtept><rtept lat="46.305405" lon="6.748438"><ele>1843.08</ele></rtept><rtept lat="46.305508" lon="6.748771"><ele>1851.59</ele></rtept><rtept lat="46.305565" lon="6.749167"><ele>1854.07</ele></rtept><rtept lat="46.305733" lon="6.749749"><ele>1845.6</ele></rtept><rtept lat="46.305775" lon="6.750144"><ele>1838.3</ele></rtept><rtept lat="46.305714" lon="6.750302"><ele>1835.05</ele></rtept><rtept lat="46.305965" lon="6.751219"><ele>1828.18</ele></rtept><rtept lat="46.306404" lon="6.752019"><ele>1852.65</ele></rtept><rtept lat="46.30662" lon="6.752626"><ele>1866.24</ele></rtept><rtept lat="46.307022" lon="6.753935"><ele>1872.8</ele></rtept><rtept lat="46.307224" lon="6.754589"><ele>1888.87</ele></rtept><rtept lat="46.307827" lon="6.756553"><ele>1972.99</ele></rtept><rtept lat="46.309242" lon="6.759947"><ele>2087.64</ele></rtept><rtept lat="46.3093" lon="6.760034"><ele>2087.74</ele></rtept><rtept lat="46.30932" lon="6.76011"><ele>2087.22</ele></rtept><rtept lat="46.309322" lon="6.760157"><ele>2086.9</ele></rtept><rtept lat="46.309307" lon="6.760334"><ele>2085.78</ele></rtept><rtept lat="46.3093" lon="6.760374"><ele>2085.42</ele></rtept><rtept lat="46.30926" lon="6.760478"><ele>2085.18</ele></rtept><rtept lat="46.30926" lon="6.760547"><ele>2085.9</ele></rtept><rtept lat="46.309284" lon="6.760633"><ele>2085.67</ele></rtept><rtept lat="46.309338" lon="6.760741"><ele>2082.36</ele></rtept><rtept lat="46.309338" lon="6.760885"><ele>2075.99</ele></rtept><rtept lat="46.309277" lon="6.761012"><ele>2069.73</ele></rtept><rtept lat="46.30925" lon="6.761188"><ele>2062.18</ele></rtept><rtept lat="46.309273" lon="6.761319"><ele>2055.55</ele></rtept><rtept lat="46.309227" lon="6.761422"><ele>2049.99</ele></rtept><rtept lat="46.309162" lon="6.761387"><ele>2043.18</ele></rtept><rtept lat="46.309067" lon="6.761406"><ele>2034.56</ele></rtept><rtept lat="46.30905" lon="6.761523"><ele>2032.23</ele></rtept><rtept lat="46.309" lon="6.761535"><ele>2029.35</ele></rtept><rtept lat="46.308968" lon="6.761615"><ele>2025.3</ele></rtept><rtept lat="46.30882" lon="6.761551"><ele>2015.64</ele></rtept><rtept lat="46.308743" lon="6.761614"><ele>2009.6</ele></rtept><rtept lat="46.30871" lon="6.761676"><ele>2006.55</ele></rtept><rtept lat="46.308685" lon="6.761695"><ele>2005.2</ele></rtept><rtept lat="46.308674" lon="6.761736"><ele>2004.29</ele></rtept><rtept lat="46.30869" lon="6.761916"><ele>2004.57</ele></rtept><rtept lat="46.30868" lon="6.762034"><ele>2003.58</ele></rtept><rtept lat="46.308662" lon="6.762111"><ele>2003.14</ele></rtept><rtept lat="46.3086" lon="6.762258"><ele>2002.21</ele></rtept><rtept lat="46.308594" lon="6.762328"><ele>2001.68</ele></rtept><rtept lat="46.308617" lon="6.762444"><ele>2000.88</ele></rtept><rtept lat="46.308613" lon="6.762507"><ele>2000.55</ele></rtept><rtept lat="46.308598" lon="6.762564"><ele>2000.19</ele></rtept><rtept lat="46.308548" lon="6.762672"><ele>1999.41</ele></rtept><rtept lat="46.308525" lon="6.762792"><ele>1998.56</ele></rtept><rtept lat="46.30849" lon="6.762853"><ele>1998.24</ele></rtept><rtept lat="46.308437" lon="6.76309"><ele>1996.49</ele></rtept><rtept lat="46.30844" lon="6.763169"><ele>1996.22</ele></rtept><rtept lat="46.308422" lon="6.763253"><ele>1995.95</ele></rtept><rtept lat="46.308422" lon="6.763395"><ele>1994.06</ele></rtept><rtept lat="46.308437" lon="6.763493"><ele>1990.23</ele></rtept><rtept lat="46.308426" lon="6.763679"><ele>1981.77</ele></rtept><rtept lat="46.308548" lon="6.764018"><ele>1970.68</ele></rtept><rtept lat="46.308598" lon="6.764192"><ele>1966.69</ele></rtept><rtept lat="46.30869" lon="6.764383"><ele>1963.66</ele></rtept><rtept lat="46.308723" lon="6.76448"><ele>1963.95</ele></rtept><rtept lat="46.308765" lon="6.765018"><ele>1949.82</ele></rtept><rtept lat="46.30873" lon="6.7652"><ele>1940.2</ele></rtept><rtept lat="46.30873" lon="6.765341"><ele>1932.47</ele></rtept><rtept lat="46.30868" lon="6.765403"><ele>1928.18</ele></rtept><rtept lat="46.308666" lon="6.765552"><ele>1921.23</ele></rtept><rtept lat="46.30862" lon="6.76565"><ele>1915.5</ele></rtept><rtept lat="46.30865" lon="6.765716"><ele>1911.56</ele></rtept><rtept lat="46.308617" lon="6.765758"><ele>1908.36</ele></rtept><rtept lat="46.308613" lon="6.765901"><ele>1900.78</ele></rtept><rtept lat="46.308563" lon="6.765964"><ele>1895.55</ele></rtept><rtept lat="46.30856" lon="6.766095"><ele>1888.48</ele></rtept><rtept lat="46.308537" lon="6.76619"><ele>1883.03</ele></rtept><rtept lat="46.308483" lon="6.766157"><ele>1878.8</ele></rtept><rtept lat="46.3085" lon="6.766234"><ele>1874.78</ele></rtept><rtept lat="46.30849" lon="6.766307"><ele>1871.15</ele></rtept><rtept lat="46.308468" lon="6.766304"><ele>1869.4</ele></rtept><rtept lat="46.30843" lon="6.766338"><ele>1866.33</ele></rtept><rtept lat="46.308403" lon="6.766339"><ele>1864.36</ele></rtept><rtept lat="46.30839" lon="6.766409"><ele>1860.89</ele></rtept><rtept lat="46.308365" lon="6.766387"><ele>1858.71</ele></rtept><rtept lat="46.30835" lon="6.766413"><ele>1856.96</ele></rtept><rtept lat="46.30834" lon="6.766413"><ele>1856.34</ele></rtept><rtept lat="46.308327" lon="6.766393"><ele>1855.13</ele></rtept><rtept lat="46.308304" lon="6.766415"><ele>1853.35</ele></rtept><rtept lat="46.3083" lon="6.766446"><ele>1851.99</ele></rtept><rtept lat="46.308266" lon="6.76646"><ele>1849.7</ele></rtept><rtept lat="46.30826" lon="6.766491"><ele>1848.43</ele></rtept><rtept lat="46.308258" lon="6.766497"><ele>1847.98</ele></rtept><rtept lat="46.30824" lon="6.766485"><ele>1846.86</ele></rtept><rtept lat="46.308186" lon="6.766487"><ele>1843.75</ele></rtept><rtept lat="46.308178" lon="6.766548"><ele>1841.24</ele></rtept><rtept lat="46.308144" lon="6.766553"><ele>1839.29</ele></rtept><rtept lat="46.308098" lon="6.766533"><ele>1836.59</ele></rtept><rtept lat="46.308105" lon="6.766578"><ele>1834.72</ele></rtept><rtept lat="46.308086" lon="6.766652"><ele>1831.68</ele></rtept><rtept lat="46.30808" lon="6.766666"><ele>1830.94</ele></rtept><rtept lat="46.30808" lon="6.766686"><ele>1830.16</ele></rtept><rtept lat="46.30806" lon="6.766717"><ele>1828.65</ele></rtept><rtept lat="46.308033" lon="6.766696"><ele>1826.97</ele></rtept><rtept lat="46.308002" lon="6.7667"><ele>1825.29</ele></rtept><rtept lat="46.307995" lon="6.766714"><ele>1824.59</ele></rtept><rtept lat="46.30795" lon="6.766739"><ele>1822.15</ele></rtept><rtept lat="46.30794" lon="6.76676"><ele>1821.31</ele></rtept><rtept lat="46.307934" lon="6.766756"><ele>1820.83</ele></rtept><rtept lat="46.3079" lon="6.766776"><ele>1819.02</ele></rtept><rtept lat="46.3079" lon="6.766817"><ele>1817.59</ele></rtept><rtept lat="46.307888" lon="6.766845"><ele>1816.42</ele></rtept><rtept lat="46.307884" lon="6.766888"><ele>1814.97</ele></rtept><rtept lat="46.30788" lon="6.766895"><ele>1814.57</ele></rtept><rtept lat="46.307835" lon="6.766879"><ele>1812.37</ele></rtept><rtept lat="46.307823" lon="6.766853"><ele>1811.33</ele></rtept><rtept lat="46.3078" lon="6.766848"><ele>1810.24</ele></rtept><rtept lat="46.30778" lon="6.766859"><ele>1809.34</ele></rtept><rtept lat="46.307762" lon="6.766856"><ele>1808.39</ele></rtept><rtept lat="46.307735" lon="6.766896"><ele>1806.58</ele></rtept><rtept lat="46.30771" lon="6.766863"><ele>1804.92</ele></rtept><rtept lat="46.307697" lon="6.766873"><ele>1804.43</ele></rtept><rtept lat="46.3077" lon="6.76694"><ele>1802.41</ele></rtept><rtept lat="46.307693" lon="6.766967"><ele>1801.48</ele></rtept><rtept lat="46.30767" lon="6.766961"><ele>1800.38</ele></rtept><rtept lat="46.307655" lon="6.766943"><ele>1799.48</ele></rtept><rtept lat="46.307655" lon="6.766954"><ele>1799.12</ele></rtept><rtept lat="46.307644" lon="6.766955"><ele>1798.54</ele></rtept><rtept lat="46.307602" lon="6.766897"><ele>1795.92</ele></rtept><rtept lat="46.30758" lon="6.766908"><ele>1794.87</ele></rtept><rtept lat="46.30757" lon="6.766923"><ele>1794.29</ele></rtept><rtept lat="46.307552" lon="6.766914"><ele>1793.3</ele></rtept><rtept lat="46.30754" lon="6.766989"><ele>1791.1</ele></rtept><rtept lat="46.30755" lon="6.767009"><ele>1790.47</ele></rtept><rtept lat="46.307495" lon="6.76703"><ele>1788.32</ele></rtept><rtept lat="46.307484" lon="6.767054"><ele>1787.4</ele></rtept><rtept lat="46.307465" lon="6.767053"><ele>1786.43</ele></rtept><rtept lat="46.307438" lon="6.767035"><ele>1784.93</ele></rtept><rtept lat="46.30742" lon="6.767043"><ele>1783.98</ele></rtept><rtept lat="46.307415" lon="6.767094"><ele>1782.1</ele></rtept><rtept lat="46.307396" lon="6.767097"><ele>1781.14</ele></rtept><rtept lat="46.307396" lon="6.767113"><ele>1780.55</ele></rtept><rtept lat="46.307384" lon="6.767111"><ele>1779.83</ele></rtept><rtept lat="46.307392" lon="6.767133"><ele>1778.79</ele></rtept><rtept lat="46.307373" lon="6.767141"><ele>1777.67</ele></rtept><rtept lat="46.30738" lon="6.767184"><ele>1776.02</ele></rtept><rtept lat="46.307396" lon="6.767185"><ele>1775.26</ele></rtept><rtept lat="46.307404" lon="6.767212"><ele>1774.03</ele></rtept><rtept lat="46.30738" lon="6.767209"><ele>1772.62</ele></rtept><rtept lat="46.307354" lon="6.767272"><ele>1769.76</ele></rtept><rtept lat="46.307316" lon="6.767313"><ele>1767.17</ele></rtept><rtept lat="46.307304" lon="6.767316"><ele>1766.47</ele></rtept><rtept lat="46.307304" lon="6.76739"><ele>1763.62</ele></rtept><rtept lat="46.307335" lon="6.767425"><ele>1761.35</ele></rtept><rtept lat="46.307365" lon="6.76743"><ele>1759.73</ele></rtept><rtept lat="46.30742" lon="6.767492"><ele>1755.75</ele></rtept><rtept lat="46.30745" lon="6.767501"><ele>1754.14</ele></rtept><rtept lat="46.307453" lon="6.767531"><ele>1752.92</ele></rtept><rtept lat="46.307438" lon="6.76761"><ele>1749.62</ele></rtept><rtept lat="46.307426" lon="6.767601"><ele>1748.91</ele></rtept><rtept lat="46.30743" lon="6.767631"><ele>1747.6</ele></rtept><rtept lat="46.30741" lon="6.767637"><ele>1746.4</ele></rtept><rtept lat="46.30742" lon="6.767677"><ele>1744.79</ele></rtept><rtept lat="46.307434" lon="6.767707"><ele>1743.2</ele></rtept><rtept lat="46.3074" lon="6.767708"><ele>1741.24</ele></rtept><rtept lat="46.30738" lon="6.767792"><ele>1737.57</ele></rtept><rtept lat="46.307392" lon="6.767836"><ele>1735.55</ele></rtept><rtept lat="46.30737" lon="6.767836"><ele>1734.02</ele></rtept><rtept lat="46.30737" lon="6.767849"><ele>1733.44</ele></rtept><rtept lat="46.307377" lon="6.767901"><ele>1731.09</ele></rtept><rtept lat="46.307396" lon="6.767901"><ele>1729.84</ele></rtept><rtept lat="46.3074" lon="6.767915"><ele>1729.24</ele></rtept><rtept lat="46.307465" lon="6.767957"><ele>1724.93</ele></rtept><rtept lat="46.307457" lon="6.767975"><ele>1724.08</ele></rtept><rtept lat="46.30741" lon="6.767999"><ele>1721.27</ele></rtept><rtept lat="46.30737" lon="6.768054"><ele>1717.86</ele></rtept><rtept lat="46.30737" lon="6.768082"><ele>1716.69</ele></rtept><rtept lat="46.30741" lon="6.768076"><ele>1714.17</ele></rtept><rtept lat="46.307415" lon="6.768091"><ele>1713.56</ele></rtept><rtept lat="46.3074" lon="6.768105"><ele>1712.45</ele></rtept><rtept lat="46.307415" lon="6.768122"><ele>1711.06</ele></rtept><rtept lat="46.307404" lon="6.768152"><ele>1709.92</ele></rtept><rtept lat="46.30742" lon="6.768196"><ele>1708.39</ele></rtept><rtept lat="46.30745" lon="6.768195"><ele>1707.05</ele></rtept><rtept lat="46.30745" lon="6.768238"><ele>1705.75</ele></rtept><rtept lat="46.307426" lon="6.76826"><ele>1704.55</ele></rtept><rtept lat="46.307426" lon="6.768274"><ele>1704.13</ele></rtept><rtept lat="46.30745" lon="6.768276"><ele>1703.09</ele></rtept><rtept lat="46.30747" lon="6.768303"><ele>1702.07</ele></rtept><rtept lat="46.307484" lon="6.768362"><ele>1700.34</ele></rtept><rtept lat="46.307476" lon="6.768441"><ele>1698.23</ele></rtept><rtept lat="46.30752" lon="6.768553"><ele>1695.05</ele></rtept><rtept lat="46.30753" lon="6.768608"><ele>1693.65</ele></rtept><rtept lat="46.307575" lon="6.768751"><ele>1689.86</ele></rtept><rtept lat="46.30758" lon="6.768817"><ele>1688.39</ele></rtept><rtept lat="46.3076" lon="6.768846"><ele>1687.55</ele></rtept><rtept lat="46.3076" lon="6.768994"><ele>1684.62</ele></rtept><rtept lat="46.307404" lon="6.769401"><ele>1677.55</ele></rtept><rtept lat="46.30733" lon="6.769466"><ele>1676.1</ele></rtept><rtept lat="46.307312" lon="6.769518"><ele>1675.43</ele></rtept><rtept lat="46.30731" lon="6.769683"><ele>1673.59</ele></rtept><rtept lat="46.30727" lon="6.770005"><ele>1670.2</ele></rtept><rtept lat="46.307205" lon="6.770211"><ele>1668.22</ele></rtept><rtept lat="46.30713" lon="6.770321"><ele>1667.01</ele></rtept><rtept lat="46.307125" lon="6.770352"><ele>1666.8</ele></rtept><rtept lat="46.3071" lon="6.770386"><ele>1666.49</ele></rtept><rtept lat="46.307007" lon="6.770464"><ele>1665.63</ele></rtept><rtept lat="46.30696" lon="6.770458"><ele>1665.27</ele></rtept><rtept lat="46.306828" lon="6.770494"><ele>1664.18</ele></rtept><rtept lat="46.306713" lon="6.770547"><ele>1663.2</ele></rtept><rtept lat="46.306652" lon="6.770555"><ele>1662.63</ele></rtept><rtept lat="46.306473" lon="6.77057"><ele>1661.18</ele></rtept><rtept lat="46.30638" lon="6.770671"><ele>1660.26</ele></rtept><rtept lat="46.30633" lon="6.770673"><ele>1659.77</ele></rtept><rtept lat="46.306274" lon="6.770748"><ele>1659.04</ele></rtept><rtept lat="46.306213" lon="6.770765"><ele>1658.61</ele></rtept><rtept lat="46.306168" lon="6.770806"><ele>1658.01</ele></rtept><rtept lat="46.30614" lon="6.770811"><ele>1657.64</ele></rtept><rtept lat="46.306114" lon="6.770859"><ele>1656.88</ele></rtept><rtept lat="46.30604" lon="6.77087"><ele>1655.03</ele></rtept><rtept lat="46.306004" lon="6.770941"><ele>1653.11</ele></rtept><rtept lat="46.305798" lon="6.771061"><ele>1644.55</ele></rtept><rtept lat="46.30572" lon="6.770608"><ele>1640.44</ele></rtept><rtept lat="46.305405" lon="6.769951"><ele>1632.31</ele></rtept><rtept lat="46.304916" lon="6.769417"><ele>1624.14</ele></rtept><rtept lat="46.304317" lon="6.769052"><ele>1616.33</ele></rtept><rtept lat="46.302402" lon="6.766685"><ele>1580.59</ele></rtept><rtept lat="46.302345" lon="6.766651"><ele>1578.91</ele></rtept><rtept lat="46.301952" lon="6.76666"><ele>1565.86</ele></rtept><rtept lat="46.301636" lon="6.766559"><ele>1554.38</ele></rtept><rtept lat="46.30152" lon="6.76649"><ele>1549.98</ele></rtept><rtept lat="46.30139" lon="6.766355"><ele>1544.11</ele></rtept><rtept lat="46.301044" lon="6.765924"><ele>1528.12</ele></rtept><rtept lat="46.30094" lon="6.765762"><ele>1523.15</ele></rtept><rtept lat="46.300716" lon="6.76526"><ele>1510.4</ele></rtept><rtept lat="46.30053" lon="6.764893"><ele>1501.71</ele></rtept><rtept lat="46.30052" lon="6.764835"><ele>1500.74</ele></rtept><rtept lat="46.30051" lon="6.764786"><ele>1499.93</ele></rtept><rtept lat="46.300503" lon="6.764505"><ele>1495.4</ele></rtept><rtept lat="46.30065" lon="6.764411"><ele>1492.19</ele></rtept><rtept lat="46.3008" lon="6.76435"><ele>1489.7</ele></rtept><rtept lat="46.30103" lon="6.764308"><ele>1486.98</ele></rtept><rtept lat="46.3015" lon="6.76425"><ele>1482.45</ele></rtept><rtept lat="46.301933" lon="6.764253"><ele>1479.15</ele></rtept><rtept lat="46.30197" lon="6.764242"><ele>1478.83</ele></rtept><rtept lat="46.30221" lon="6.764114"><ele>1476.81</ele></rtept><rtept lat="46.302486" lon="6.76403"><ele>1474.8</ele></rtept><rtept lat="46.302567" lon="6.76402"><ele>1474.17</ele></rtept><rtept lat="46.302658" lon="6.764035"><ele>1473.4</ele></rtept><rtept lat="46.30276" lon="6.76408"><ele>1472.45</ele></rtept><rtept lat="46.303116" lon="6.76432"><ele>1468.85</ele></rtept><rtept lat="46.30326" lon="6.764385"><ele>1467.64</ele></rtept><rtept lat="46.303566" lon="6.764557"><ele>1464.82</ele></rtept><rtept lat="46.30386" lon="6.764671"><ele>1462.71</ele></rtept><rtept lat="46.303963" lon="6.764661"><ele>1462.14</ele></rtept><rtept lat="46.304066" lon="6.764597"><ele>1461.07</ele></rtept><rtept lat="46.304073" lon="6.764531"><ele>1460.11</ele></rtept><rtept lat="46.30407" lon="6.764443"><ele>1458.77</ele></rtept><rtept lat="46.303993" lon="6.764226"><ele>1453.96</ele></rtept><rtept lat="46.303936" lon="6.764137"><ele>1451.54</ele></rtept><rtept lat="46.30384" lon="6.764053"><ele>1448.03</ele></rtept><rtept lat="46.30379" lon="6.763992"><ele>1446.07</ele></rtept><rtept lat="46.30363" lon="6.763774"><ele>1439.95</ele></rtept><rtept lat="46.303562" lon="6.763641"><ele>1436.86</ele></rtept><rtept lat="46.303402" lon="6.763162"><ele>1427.31</ele></rtept><rtept lat="46.302963" lon="6.762159"><ele>1407.08</ele></rtept><rtept lat="46.30294" lon="6.762117"><ele>1406.21</ele></rtept><rtept lat="46.302658" lon="6.761769"><ele>1396.12</ele></rtept><rtept lat="46.302628" lon="6.761698"><ele>1394.49</ele></rtept><rtept lat="46.302555" lon="6.76137"><ele>1388.58</ele></rtept><rtept lat="46.30253" lon="6.76123"><ele>1386.83</ele></rtept><rtept lat="46.302505" lon="6.761222"><ele>1386.03</ele></rtept><rtept lat="46.302486" lon="6.761192"><ele>1385.4</ele></rtept><rtept lat="46.30244" lon="6.761082"><ele>1383.87</ele></rtept><rtept lat="46.302383" lon="6.76086"><ele>1381.44</ele></rtept><rtept lat="46.30236" lon="6.760804"><ele>1380.53</ele></rtept><rtept lat="46.302242" lon="6.760611"><ele>1377.03</ele></rtept><rtept lat="46.30222" lon="6.760559"><ele>1376.29</ele></rtept><rtept lat="46.302193" lon="6.760456"><ele>1375.14</ele></rtept><rtept lat="46.30219" lon="6.760346"><ele>1373.86</ele></rtept><rtept lat="46.302193" lon="6.760285"><ele>1373.11</ele></rtept><rtept lat="46.302284" lon="6.759969"><ele>1368.76</ele></rtept><rtept lat="46.30229" lon="6.759919"><ele>1368.08</ele></rtept><rtept lat="46.30229" lon="6.759821"><ele>1366.78</ele></rtept><rtept lat="46.302265" lon="6.759728"><ele>1365.48</ele></rtept><rtept lat="46.3021" lon="6.759442"><ele>1360.59</ele></rtept><rtept lat="46.30205" lon="6.759305"><ele>1358.66</ele></rtept><rtept lat="46.302036" lon="6.759181"><ele>1357.09</ele></rtept><rtept lat="46.302055" lon="6.758857"><ele>1353.02</ele></rtept><rtept lat="46.30205" lon="6.758821"><ele>1352.52</ele></rtept><rtept lat="46.302036" lon="6.758789"><ele>1352.01</ele></rtept><rtept lat="46.302" lon="6.758755"><ele>1351.14</ele></rtept><rtept lat="46.30195" lon="6.758757"><ele>1350.15</ele></rtept><rtept lat="46.301926" lon="6.758776"><ele>1349.61</ele></rtept><rtept lat="46.301907" lon="6.758803"><ele>1349.15</ele></rtept><rtept lat="46.30176" lon="6.7593"><ele>1342.27</ele></rtept><rtept lat="46.30173" lon="6.75933"><ele>1341.59</ele></rtept><rtept lat="46.301697" lon="6.75933"><ele>1340.94</ele></rtept><rtept lat="46.30168" lon="6.759321"><ele>1340.63</ele></rtept><rtept lat="46.30166" lon="6.759272"><ele>1339.83</ele></rtept><rtept lat="46.30166" lon="6.759043"><ele>1337.22</ele></rtept><rtept lat="46.30165" lon="6.758952"><ele>1336.05</ele></rtept><rtept lat="46.30158" lon="6.758538"><ele>1329.79</ele></rtept><rtept lat="46.30158" lon="6.758432"><ele>1328.33</ele></rtept><rtept lat="46.301598" lon="6.758344"><ele>1327.37</ele></rtept><rtept lat="46.301537" lon="6.758317"><ele>1324.99</ele></rtept><rtept lat="46.301483" lon="6.758327"><ele>1323.86</ele></rtept><rtept lat="46.30146" lon="6.758342"><ele>1323.34</ele></rtept><rtept lat="46.301315" lon="6.758544"><ele>1318.31</ele></rtept><rtept lat="46.30127" lon="6.758576"><ele>1317.16</ele></rtept><rtept lat="46.301224" lon="6.758561"><ele>1315.99</ele></rtept><rtept lat="46.301067" lon="6.75838"><ele>1309.89</ele></rtept><rtept lat="46.301037" lon="6.758327"><ele>1308.14</ele></rtept><rtept lat="46.301025" lon="6.758284"><ele>1306.74</ele></rtept><rtept lat="46.301014" lon="6.758229"><ele>1305.18</ele></rtept><rtept lat="46.301018" lon="6.758158"><ele>1303.4</ele></rtept><rtept lat="46.30103" lon="6.758109"><ele>1302.3</ele></rtept><rtept lat="46.301132" lon="6.75791"><ele>1297.26</ele></rtept><rtept lat="46.301147" lon="6.757851"><ele>1296.39</ele></rtept><rtept lat="46.301163" lon="6.75773"><ele>1294.98</ele></rtept><rtept lat="46.301132" lon="6.757684"><ele>1293.64</ele></rtept><rtept lat="46.30109" lon="6.757356"><ele>1289.18</ele></rtept><rtept lat="46.30098" lon="6.757035"><ele>1284.94</ele></rtept><rtept lat="46.300766" lon="6.756551"><ele>1280.8</ele></rtept><rtept lat="46.30065" lon="6.756216"><ele>1278.12</ele></rtept><rtept lat="46.300472" lon="6.755858"><ele>1275.13</ele></rtept><rtept lat="46.300457" lon="6.75577"><ele>1274.56</ele></rtept><rtept lat="46.300457" lon="6.755495"><ele>1273.12</ele></rtept><rtept lat="46.300446" lon="6.755376"><ele>1272.49</ele></rtept><rtept lat="46.30042" lon="6.755308"><ele>1272.07</ele></rtept><rtept lat="46.30031" lon="6.755077"><ele>1270.45</ele></rtept><rtept lat="46.300285" lon="6.755"><ele>1269.91</ele></rtept><rtept lat="46.30022" lon="6.754725"><ele>1268.13</ele></rtept><rtept lat="46.300068" lon="6.754355"><ele>1265.57</ele></rtept><rtept lat="46.300056" lon="6.754273"><ele>1264.98</ele></rtept><rtept lat="46.300064" lon="6.754205"><ele>1264.33</ele></rtept><rtept lat="46.30015" lon="6.75384"><ele>1260.06</ele></rtept><rtept lat="46.300148" lon="6.753759"><ele>1259.81</ele></rtept><rtept lat="46.30013" lon="6.753686"><ele>1260.29</ele></rtept><rtept lat="46.300095" lon="6.753622"><ele>1260.64</ele></rtept><rtept lat="46.29983" lon="6.753386"><ele>1259.16</ele></rtept><rtept lat="46.29964" lon="6.753258"><ele>1257.57</ele></rtept><rtept lat="46.29959" lon="6.753207"><ele>1257.01</ele></rtept><rtept lat="46.29956" lon="6.753135"><ele>1256.51</ele></rtept><rtept lat="46.299503" lon="6.752892"><ele>1255.0</ele></rtept><rtept lat="46.299465" lon="6.752757"><ele>1254.1</ele></rtept><rtept lat="46.29927" lon="6.752304"><ele>1250.52</ele></rtept><rtept lat="46.299236" lon="6.752194"><ele>1249.71</ele></rtept><rtept lat="46.299168" lon="6.751921"><ele>1247.58</ele></rtept><rtept lat="46.299156" lon="6.75177"><ele>1246.49</ele></rtept><rtept lat="46.299164" lon="6.751661"><ele>1245.83</ele></rtept><rtept lat="46.299206" lon="6.751407"><ele>1244.76</ele></rtept><rtept lat="46.2992" lon="6.751184"><ele>1244.1</ele></rtept><rtept lat="46.299202" lon="6.751103"><ele>1243.85</ele></rtept><rtept lat="46.29927" lon="6.750829"><ele>1242.71</ele></rtept><rtept lat="46.299274" lon="6.750788"><ele>1242.51</ele></rtept><rtept lat="46.299255" lon="6.750715"><ele>1242.13</ele></rtept><rtept lat="46.299213" lon="6.75066"><ele>1241.73</ele></rtept><rtept lat="46.299103" lon="6.750619"><ele>1240.87</ele></rtept><rtept lat="46.29883" lon="6.7506"><ele>1238.89</ele></rtept><rtept lat="46.29877" lon="6.750573"><ele>1238.44</ele></rtept><rtept lat="46.298733" lon="6.750521"><ele>1238.24</ele></rtept><rtept lat="46.29866" lon="6.750302"><ele>1236.28</ele></rtept><rtept lat="46.298622" lon="6.750211"><ele>1234.96</ele></rtept><rtept lat="46.298496" lon="6.750014"><ele>1232.69</ele></rtept></rte></gpx>